COSMOS 2520             
1 42907U 17046A   26199.75044517  .00000130  00000+0  00000+0 0  9992
2 42907   0.0353 107.3926 0000839 343.1189 161.2276  1.00279605 32710
TDRS 13                 
1 42915U 17047A   26200.26164155 -.00000105  00000+0  00000+0 0  9995
2 42915   3.4606   3.5236 0014925 111.4840 264.8331  1.00272181 32678
QZS-3 (MICHIBIKI-3)     
1 42917U 17048A   26200.21767384 -.00000353  00000+0  00000+0 0  9991
2 42917   0.0607 209.9501 0002700 276.4344  16.0219  1.00270548 32587
AMAZONAS 5              
1 42934U 17053A   26200.25184817 -.00000288  00000+0  00000+0 0  9991
2 42934   0.0353 317.3328 0001137 131.9008 237.4745  1.00272104 32369
ASIASAT 9               
1 42942U 17057A   26199.72961374 -.00000366  00000+0  00000+0 0  9991
2 42942   0.0139  45.5254 0002279  65.0526 210.7162  1.00271141 32174
INTELSAT 37E (IS-37E)   
1 42950U 17059A   26200.26034155 -.00000146  00000+0  00000+0 0  9998
2 42950   0.0174  81.4966 0002687  38.9301 252.3402  1.00272950 32385
BSAT-4A                 
1 42951U 17059B   26200.28564832 -.00000355  00000+0  00000+0 0  9993
2 42951   0.0373 340.6835 0003516 103.7457  65.2990  1.00269893 32124
QZS-4 (MICHIBIKI-4)     
1 42965U 17062A   26199.63387119 -.00000358  00000+0  00000+0 0  9992
2 42965  40.0895 343.0840 0747101 268.6460  52.1747  1.00289733 32114
SES-11 (ECHOSTAR 105)   
1 42967U 17063A   26200.26047795 -.00000094  00000+0  00000+0 0  9997
2 42967   0.0257 321.0071 0002813 145.2708 179.5831  1.00271579 32044
KOREASAT 5A             
1 42984U 17067A   26200.28616832 -.00000363  00000+0  00000+0 0  9995
2 42984   0.0158 325.7983 0000960 123.2972  64.1345  1.00273462 31856
ALCOMSAT 1              
1 43039U 17078A   26200.25895487 -.00000191  00000+0  00000+0 0  9990
2 43039   0.0428 258.0109 0002347 220.8921 246.5483  1.00272582 31610
SBIRS GEO-3 (USA 282)   
1 43162U 18009A   26200.24419747  .00000122  00000+0  00000+0 0  9995
2 43162   2.2080  13.6011 0001948  98.0264 113.9092  1.00271441 31169
AL YAH 3                
1 43174U 18012A   26200.25990822 -.00000161  00000+0  00000+0 0  9995
2 43174   1.6327  82.7218 0003592  32.7774 255.0006  1.00272141 31164
SES-14                  
1 43175U 18012B   26200.25453485 -.00000284  00000+0  00000+0 0  9991
2 43175   0.0112  25.0473 0001069  84.0484 232.0732  1.00273643  7340
GOES 17                 
1 43226U 18022A   26200.23227132 -.00000188  00000+0  00000+0 0  9998
2 43226   1.0175  85.2034 0000652  66.9788 138.9537  1.00270788 30745
HISPASAT 30W-6          
1 43228U 18023A   26200.25791487 -.00000221  00000+0  00000+0 0  9990
2 43228   0.0398  50.5914 0005204  44.2471 265.0731  1.00270403 30721
SUPERBIRD-B3            
1 43271U 18033A   26200.22443387 -.00000097  00000+0  00000+0 0  9990
2 43271   0.0410 239.6688 0001360 257.5947  42.5490  1.00271898 30389
HYLAS 4                 
1 43272U 18033B   26199.99628075 -.00000239  00000+0  00000+0 0  9999
2 43272   0.0405 235.8434 0000696 268.4093 117.7080  1.00274322 30380
IRNSS-1I                
1 43286U 18035A   26199.73725451  .00000063  00000+0  00000+0 0  9998
2 43286  28.8267  73.7035 0018376 178.8797   4.4154  1.00273309 30393
USA 283                 
1 43339U 18036A   26196.55391690  .00000000  00000+0  00000+0 0  9990
2 43339   0.0219  73.5495 0000851 143.9027  49.4517  1.00269348 25571
COSMOS 2526             
1 43432U 18037A   26199.75536833 -.00000351  00000+0  00000+0 0  9990
2 43432   0.0293  96.4065 0000512 132.0531 108.0982  1.00274864 30277
APSTAR-6C               
1 43450U 18041A   26198.65086718 -.00000327  00000+0  00000+0 0  9998
2 43450   0.0526 292.8057 0000428 310.9892  59.9640  1.00269827 30113
BANGABANDHUSAT-1        
1 43463U 18044A   26200.28746833 -.00000367  00000+0  00000+0 0  9993
2 43463   0.0331  97.1952 0001895  22.0541  40.4153  1.00272724 30037
SES-12                  
1 43488U 18049A   26200.28261498 -.00000274  00000+0  00000+0 0  9991
2 43488   0.0101  12.8321 0000668 251.0806 229.8967  1.00271327 29748
FENGYUN 2H              
1 43491U 18050A   26200.06571079 -.00000133  00000+0  00000+0 0  9996
2 43491   3.1117  78.7020 0002177 132.5877 188.2939  1.00266930 29750
BEIDOU-2 IGSO-7         
1 43539U 18057A   26197.82826650 -.00000084  00000+0  00000+0 0  9998
2 43539  55.1987 162.7987 0104914 237.9691 299.1450  1.00242392 29427
TELSTAR 19V             
1 43562U 18059A   26200.18014701 -.00000285  00000+0  00000+0 0  9999
2 43562   0.0279 151.0876 0003032 339.4298 168.2938  1.00270136 29462
TELKOM 4 (MERAH PUTIH)  
1 43587U 18064A   26200.28530166  .00000000  00000+0  00000+0 0  9995
2 43587   0.0194  66.7969 0001316  51.4999  29.4944  1.00269708 29202
TELSTAR 18V             
1 43611U 18069A   26199.72097707 -.00000301  00000+0  00000+0 0  9998
2 43611   0.0408 235.4501 0001719 233.9674 224.6562  1.00270667 28951
AZERSPACE 2 (IS-38)     
1 43632U 18074A   26200.20155377  .00000000  00000+0  00000+0 0  9996
2 43632   0.0180  49.4353 0001510  59.6241 305.6149  1.00270259 28768
HORIZONS-3E             
1 43633U 18074B   26200.15482613 -.00000036  00000+0  00000+0 0  9997
2 43633   0.0325 259.1318 0000660  29.8617 232.6746  1.00271726 28663
