OBJECT_NAME,OBJECT_ID,EPOCH,MEAN_MOTION,ECCENTRICITY,INCLINATION,RA_OF_ASC_NODE,ARG_OF_PERICENTER,MEAN_ANOMALY,EPHEMERIS_TYPE,CLASSIFICATION_TYPE,NORAD_CAT_ID,ELEMENT_SET_NO,REV_AT_EPOCH,BSTAR,MEAN_MOTION_DOT,MEAN_MOTION_DDOT
COSMOS 2520,2017-046A,2026-07-18T18:00:38.462688,1.00279605,.00008397,0.0353,107.3926,343.1189,161.2276,0,U,42907,999,3271,0,.13E-5,0
TDRS 13,2017-047A,2026-07-19T06:16:45.829920,1.00272181,.0014925,3.4606,3.5236,111.4840,264.8331,0,U,42915,999,3267,0,-.105E-5,0
QZS-3 (MICHIBIKI-3),2017-048A,2026-07-19T05:13:27.019776,1.00270548,.00027007,0.0607,209.9501,276.4344,16.0219,0,U,42917,999,3258,0,-.353E-5,0
AMAZONAS 5,2017-053A,2026-07-19T06:02:39.681888,1.00272104,.0001137,0.0353,317.3328,131.9008,237.4745,0,U,42934,999,3236,0,-.288E-5,0
ASIASAT 9,2017-057A,2026-07-18T17:30:38.627136,1.00271141,.00022793,0.0139,45.5254,65.0526,210.7162,0,U,42942,999,3217,0,-.366E-5,0
INTELSAT 37E (IS-37E),2017-059A,2026-07-19T06:14:53.509920,1.00272950,.00026879,0.0174,81.4966,38.9301,252.3402,0,U,42950,999,3238,0,-.146E-5,0
BSAT-4A,2017-059B,2026-07-19T06:51:20.014848,1.00269893,.00035166,0.0373,340.6835,103.7457,65.2990,0,U,42951,999,3212,0,-.355E-5,0
QZS-4 (MICHIBIKI-4),2017-062A,2026-07-18T15:12:46.470816,1.00289733,.07471012,40.0895,343.0840,268.6460,52.1747,0,U,42965,999,3211,0,-.358E-5,0
SES-11 (ECHOSTAR 105),2017-063A,2026-07-19T06:15:05.294880,1.00271579,.00028133,0.0257,321.0071,145.2708,179.5831,0,U,42967,999,3204,0,-.94E-6,0
KOREASAT 5A,2017-067A,2026-07-19T06:52:04.942848,1.00273462,.00009603,0.0158,325.7983,123.2972,64.1345,0,U,42984,999,3185,0,-.363E-5,0
ALCOMSAT 1,2017-078A,2026-07-19T06:12:53.700768,1.00272582,.00023478,0.0428,258.0109,220.8921,246.5483,0,U,43039,999,3161,0,-.191E-5,0
SBIRS GEO-3 (USA 282),2018-009A,2026-07-19T05:51:38.661408,1.00271441,.00019483,2.2080,13.6011,98.0264,113.9092,0,U,43162,999,3116,0,.122E-5,0
AL YAH 3,2018-012A,2026-07-19T06:14:16.070208,1.00272141,.00035928,1.6327,82.7218,32.7774,255.0006,0,U,43174,999,3116,0,-.161E-5,0
SES-14,2018-012B,2026-07-19T06:06:31.811040,1.00273643,.00010695,0.0112,25.0473,84.0484,232.0732,0,U,43175,999,734,0,-.284E-5,0
GOES 17,2018-022A,2026-07-19T05:34:28.242048,1.00270788,.00006526,1.0175,85.2034,66.9788,138.9537,0,U,43226,999,3074,0,-.188E-5,0
HISPASAT 30W-6,2018-023A,2026-07-19T06:11:23.844768,1.00270403,.00052042,0.0398,50.5914,44.2471,265.0731,0,U,43228,999,3072,0,-.221E-5,0
SUPERBIRD-B3,2018-033A,2026-07-19T05:23:11.086368,1.00271898,.00013605,0.0410,239.6688,257.5947,42.5490,0,U,43271,999,3038,0,-.97E-6,0
HYLAS 4,2018-033B,2026-07-18T23:54:38.656800,1.00274322,.00006964,0.0405,235.8434,268.4093,117.7080,0,U,43272,999,3038,0,-.239E-5,0
IRNSS-1I,2018-035A,2026-07-18T17:41:38.789664,1.00273309,.0018376,28.8267,73.7035,178.8797,4.4154,0,U,43286,999,3039,0,.63E-6,0
USA 283,2018-036A,2026-07-15T13:17:38.420160,1.00269348,.0000851,0.0219,73.5495,143.9027,49.4517,0,U,43339,999,2557,0,0,0
COSMOS 2526,2018-037A,2026-07-18T18:07:43.823712,1.00274864,.00005127,0.0293,96.4065,132.0531,108.0982,0,U,43432,999,3027,0,-.351E-5,0
APSTAR-6C,2018-041A,2026-07-17T15:37:14.924352,1.00269827,.0000428,0.0526,292.8057,310.9892,59.9640,0,U,43450,999,3011,0,-.327E-5,0
BANGABANDHUSAT-1,2018-044A,2026-07-19T06:53:57.263712,1.00272724,.00018955,0.0331,97.1952,22.0541,40.4153,0,U,43463,999,3003,0,-.367E-5,0
SES-12,2018-049A,2026-07-19T06:46:57.934272,1.00271327,.00006688,0.0101,12.8321,251.0806,229.8967,0,U,43488,999,2974,0,-.274E-5,0
FENGYUN 2H,2018-050A,2026-07-19T01:34:37.412256,1.00266930,.00021772,3.1117,78.7020,132.5877,188.2939,0,U,43491,999,2975,0,-.133E-5,0
BEIDOU-2 IGSO-7,2018-057A,2026-07-16T19:52:42.225600,1.00242392,.01049148,55.1987,162.7987,237.9691,299.1450,0,U,43539,999,2942,0,-.84E-6,0
TELSTAR 19V,2018-059A,2026-07-19T04:19:24.701664,1.00270136,.00030328,0.0279,151.0876,339.4298,168.2938,0,U,43562,999,2946,0,-.285E-5,0
TELKOM 4 (MERAH PUTIH),2018-064A,2026-07-19T06:50:50.063424,1.00269708,.00013168,0.0194,66.7969,51.4999,29.4944,0,U,43587,999,2920,0,0,0
TELSTAR 18V,2018-069A,2026-07-18T17:18:12.418848,1.00270667,.00017195,0.0408,235.4501,233.9674,224.6562,0,U,43611,999,2895,0,-.301E-5,0
AZERSPACE 2 (IS-38),2018-074A,2026-07-19T04:50:14.245728,1.00270259,.00015101,0.0180,49.4353,59.6241,305.6149,0,U,43632,999,2876,0,0,0
HORIZONS-3E,2018-074B,2026-07-19T03:42:56.977632,1.00271726,.00006606,0.0325,259.1318,29.8617,232.6746,0,U,43633,999,2866,0,-.36E-6,0
